OBJECT_NAME,OBJECT_ID,EPOCH,MEAN_MOTION,ECCENTRICITY,INCLINATION,RA_OF_ASC_NODE,ARG_OF_PERICENTER,MEAN_ANOMALY,EPHEMERIS_TYPE,CLASSIFICATION_TYPE,NORAD_CAT_ID,ELEMENT_SET_NO,REV_AT_EPOCH,BSTAR,MEAN_MOTION_DOT,MEAN_MOTION_DDOT
SKYSAT-C4,2016-058B,2026-06-06T20:42:42.907968,15.48263567,.0000883,96.9182,180.0695,86.7965,273.3388,0,U,41771,999,54387,.3671E-3,.19295E-3,0
SKYSAT-C5,2016-058C,2026-06-06T08:14:36.225312,15.34314115,.00023413,97.0475,198.4688,11.6429,348.4869,0,U,41772,999,54208,.30222151E-3,.9969E-4,0
SKYSAT-C2,2016-058D,2026-06-06T19:28:09.312096,15.41831952,.0005228,97.0172,180.2986,92.7811,267.4036,0,U,41773,999,54345,.33047E-3,.13941E-3,0
SKYSAT-C3,2016-058E,2026-06-06T19:54:16.734240,15.52094114,.0002017,96.9015,189.0787,81.0888,279.0595,0,U,41774,999,54450,.41227E-3,.24837E-3,0
ALSAT-1B,2016-059C,2026-06-06T20:12:08.185824,14.72265819,.000771,97.7754,167.0523,259.4781,100.5559,0,U,41785,999,51905,.30536E-4,.146E-5,0
PATHFINDER 1,2016-059E,2026-06-06T13:39:28.359072,14.67651263,.0027122,97.8166,157.3246,238.6845,121.1704,0,U,41787,999,51815,.12687E-3,.678E-5,0
SCATSAT 1,2016-059H,2026-06-06T14:17:09.400416,14.79504063,.0053279,98.1195,221.2520,282.5104,77.0150,0,U,41790,999,10002,.16683E-3,.1219E-4,0
GOKTURK 1A,2016-073A,2026-06-06T20:21:33.640128,14.62767348,.0001451,98.1258,52.6843,77.2227,282.9137,0,U,41875,999,50731,.97501E-4,.45E-5,0
RESOURCESAT-2A,2016-074A,2026-06-06T20:46:08.709312,14.21612997,.0003319,98.7522,231.4539,102.2618,257.8931,0,U,41877,999,49283,.44535E-4,.54E-6,0
CARTOSAT-2D,2017-008A,2026-06-05T15:10:45.234336,15.19236200,.00037278,97.4122,216.1531,285.1069,74.9753,0,U,41948,999,51582,-.99469042E-4,-.216E-4,0
SENTINEL-2B,2017-013A,2026-06-06T20:35:16.293408,14.30813931,.0001218,98.5688,232.7778,84.4733,275.6589,0,U,42063,999,48316,.43702E-4,.71E-6,0
CARTOSAT-2E,2017-036C,2026-06-06T20:03:16.384320,15.19242091,.0003258,97.4274,217.8085,3.2039,356.9216,0,U,42767,999,49657,.27191E-3,.5663E-4,0
FORMOSAT-5,2017-049A,2026-06-06T20:18:41.539968,14.50895009,.0012638,98.2253,233.3856,112.8636,247.3895,0,U,42920,999,46517,.57931E-4,.185E-5,0
SENTINEL-5P,2017-064A,2026-06-06T13:24:13.419360,14.19517174,.0000975,98.7922,99.7656,81.2482,278.8805,0,U,42969,999,44805,.50983E-4,.63E-6,0
SKYSAT-C11,2017-068A,2026-06-06T03:15:43.761024,15.57313292,.0001127,97.4346,305.4915,86.8611,273.2773,0,U,42987,999,48152,.51972E-3,.37958E-3,0
SKYSAT-C10,2017-068B,2026-06-05T21:08:33.596160,15.34442038,.0001298,97.4497,293.6207,89.3365,270.8026,0,U,42988,999,48062,.38541E-3,.12783E-3,0
SKYSAT-C9,2017-068C,2026-06-06T15:46:48.145152,15.41300187,.000884,97.4416,295.2397,166.9794,193.1683,0,U,42989,999,48113,.4093E-3,.16997E-3,0
SKYSAT-C8,2017-068D,2026-06-06T15:37:04.011168,15.36768703,.0001602,97.4513,294.1579,97.8802,262.2624,0,U,42990,999,48069,.38552E-3,.13777E-3,0
SKYSAT-C7,2017-068E,2026-06-06T15:27:21.917952,15.36715247,.0006904,97.4524,295.1398,137.5981,222.5798,0,U,42991,999,48075,.37973E-3,.13554E-3,0
SKYSAT-C6,2017-068F,2026-06-06T18:37:11.309376,15.34029627,.0003801,97.4559,295.2812,166.0916,194.0431,0,U,42992,999,48072,.33801E-3,.11055E-3,0
CARTOSAT-2F,2018-004A,2026-06-06T20:49:10.551936,15.19293839,.0000153,97.4788,217.6028,43.2717,316.8529,0,U,43111,999,46576,.22346E-3,.4647E-4,0
GAOFEN-1 02,2018-031A,2026-06-06T20:41:02.424768,14.76466338,.0004429,98.0525,220.4173,56.2548,303.9083,0,U,43259,999,44117,.10601E-3,.686E-5,0
GAOFEN-1 03,2018-031B,2026-06-06T20:09:35.518752,14.76454601,.0003826,98.0526,220.2550,99.6516,260.5126,0,U,43260,999,44116,.12736E-3,.835E-5,0
GAOFEN-1 04,2018-031D,2026-06-06T21:12:14.404320,14.76465785,.000223,98.0527,220.4880,92.6081,267.5384,0,U,43262,999,44116,.17061E-3,.1136E-4,0
SENTINEL-3B,2018-039A,2026-06-06T14:24:08.142336,14.26738785,.0000909,98.6250,225.2839,76.4687,283.6595,0,U,43437,999,42261,.68861E-4,.123E-5,0
GAOFEN-5 01,2018-043A,2026-06-06T15:34:26.937696,14.60598310,.0002986,98.4564,129.0142,102.4390,257.7143,0,U,43461,999,43015,.94065E-4,.408E-5,0
GAOFEN-6,2018-048A,2026-06-06T20:07:47.279424,14.76620551,.0011201,97.7757,220.9024,202.5380,157.5340,0,U,43484,999,43186,.92978E-4,.601E-5,0
GAOFEN-11 01,2018-063A,2026-06-06T21:04:26.292576,15.54991380,.0004356,97.1294,224.7877,33.1888,326.9639,0,U,43585,999,43874,.26446E-3,.17646E-3,0
ICESAT-2,2018-070A,2026-06-06T17:51:01.850688,15.28230326,.0005158,92.0070,288.1590,122.3178,237.8571,0,U,43613,999,43086,.44974E-3,.12375E-3,0
HYSIS,2018-096A,2026-06-06T20:35:39.126336,14.78672769,.0001594,97.9837,224.6866,112.3040,247.8340,0,U,43719,999,40589,.10887E-3,.746E-5,0
KAZSTSAT,2018-099AB,2026-06-06T14:57:26.664192,14.99837336,.0007678,97.4264,190.0325,97.1759,263.0338,0,U,43783,999,40972,.11169E-3,.1328E-4,0
