SKYSAT-C4               
1 41771U 16058B   26157.86299662  .00019295  00000+0  36710-3 0  9994
2 41771  96.9182 180.0695 0000883  86.7965 273.3388 15.48263567543874
SKYSAT-C5               
1 41772U 16058C   26157.34347483  .00009969  00000+0  30222-3 0  9992
2 41772  97.0475 198.4688 0002341  11.6429 348.4869 15.34314115542081
SKYSAT-C2               
1 41773U 16058D   26157.81121889  .00013941  00000+0  33047-3 0  9998
2 41773  97.0172 180.2986 0005228  92.7811 267.4036 15.41831952543457
SKYSAT-C3               
1 41774U 16058E   26157.82936035  .00024837  00000+0  41227-3 0  9992
2 41774  96.9015 189.0787 0002017  81.0888 279.0595 15.52094114544505
ALSAT-1B                
1 41785U 16059C   26157.84176141  .00000146  00000+0  30536-4 0  9990
2 41785  97.7754 167.0523 0007710 259.4781 100.5559 14.72265819519051
PATHFINDER 1            
1 41787U 16059E   26157.56907823  .00000678  00000+0  12687-3 0  9996
2 41787  97.8166 157.3246 0027122 238.6845 121.1704 14.67651263518151
SCATSAT 1               
1 41790U 16059H   26157.59524769  .00001219  00000+0  16683-3 0  9999
2 41790  98.1195 221.2520 0053279 282.5104  77.0150 14.79504063100020
GOKTURK 1A              
1 41875U 16073A   26157.84830602  .00000450  00000+0  97501-4 0  9998
2 41875  98.1258  52.6843 0001451  77.2227 282.9137 14.62767348507312
RESOURCESAT-2A          
1 41877U 16074A   26157.86537858  .00000054  00000+0  44535-4 0  9999
2 41877  98.7522 231.4539 0003319 102.2618 257.8931 14.21612997492838
CARTOSAT-2D             
1 41948U 17008A   26156.63246799 -.00002160  00000+0 -99469-4 0  9999
2 41948  97.4122 216.1531 0003727 285.1069  74.9753 15.19236200515827
SENTINEL-2B             
1 42063U 17013A   26157.85782747  .00000071  00000+0  43702-4 0  9993
2 42063  98.5688 232.7778 0001218  84.4733 275.6589 14.30813931483165
CARTOSAT-2E             
1 42767U 17036C   26157.83560630  .00005663  00000+0  27191-3 0  9997
2 42767  97.4274 217.8085 0003258   3.2039 356.9216 15.19242091496574
FORMOSAT-5              
1 42920U 17049A   26157.84631412  .00000185  00000+0  57931-4 0  9990
2 42920  98.2253 233.3856 0012638 112.8636 247.3895 14.50895009465177
SENTINEL-5P             
1 42969U 17064A   26157.55848865  .00000063  00000+0  50983-4 0  9995
2 42969  98.7922  99.7656 0000975  81.2482 278.8805 14.19517174448056
SKYSAT-C11              
1 42987U 17068A   26157.13592316  .00037958  00000+0  51972-3 0  9991
2 42987  97.4346 305.4915 0001127  86.8611 273.2773 15.57313292481522
SKYSAT-C10              
1 42988U 17068B   26156.88094440  .00012783  00000+0  38541-3 0  9994
2 42988  97.4497 293.6207 0001298  89.3365 270.8026 15.34442038480625
SKYSAT-C9               
1 42989U 17068C   26157.65750168  .00016997  00000+0  40930-3 0  9993
2 42989  97.4416 295.2397 0008840 166.9794 193.1683 15.41300187481132
SKYSAT-C8               
1 42990U 17068D   26157.65074087  .00013777  00000+0  38552-3 0  9994
2 42990  97.4513 294.1579 0001602  97.8802 262.2624 15.36768703480692
SKYSAT-C7               
1 42991U 17068E   26157.64400368  .00013554  00000+0  37973-3 0  9998
2 42991  97.4524 295.1398 0006904 137.5981 222.5798 15.36715247480758
SKYSAT-C6               
1 42992U 17068F   26157.77582534  .00011055  00000+0  33801-3 0  9999
2 42992  97.4559 295.2812 0003801 166.0916 194.0431 15.34029627480729
CARTOSAT-2F             
1 43111U 18004A   26157.86748324  .00004647  00000+0  22346-3 0  9996
2 43111  97.4788 217.6028 0000153  43.2717 316.8529 15.19293839465766
GAOFEN-1 02             
1 43259U 18031A   26157.86183362  .00000686  00000+0  10601-3 0  9994
2 43259  98.0525 220.4173 0004429  56.2548 303.9083 14.76466338441173
GAOFEN-1 03             
1 43260U 18031B   26157.83999443  .00000835  00000+0  12736-3 0  9995
2 43260  98.0526 220.2550 0003826  99.6516 260.5126 14.76454601441164
GAOFEN-1 04             
1 43262U 18031D   26157.88350005  .00001136  00000+0  17061-3 0  9998
2 43262  98.0527 220.4880 0002230  92.6081 267.5384 14.76465785441161
SENTINEL-3B             
1 43437U 18039A   26157.60009424  .00000123  00000+0  68861-4 0  9996
2 43437  98.6250 225.2839 0000909  76.4687 283.6595 14.26738785422614
GAOFEN-5 01             
1 43461U 18043A   26157.64892289  .00000408  00000+0  94065-4 0  9992
2 43461  98.4564 129.0142 0002986 102.4390 257.7143 14.60598310430158
GAOFEN-6                
1 43484U 18048A   26157.83874166  .00000601  00000+0  92978-4 0  9993
2 43484  97.7757 220.9024 0011201 202.5380 157.5340 14.76620551431865
GAOFEN-11 01            
1 43585U 18063A   26157.87808209  .00017646  00000+0  26446-3 0  9994
2 43585  97.1294 224.7877 0004356  33.1888 326.9639 15.54991380438744
ICESAT-2                
1 43613U 18070A   26157.74377142  .00012375  00000+0  44974-3 0  9997
2 43613  92.0070 288.1590 0005158 122.3178 237.8571 15.28230326430869
HYSIS                   
1 43719U 18096A   26157.85809174  .00000746  00000+0  10887-3 0  9994
2 43719  97.9837 224.6866 0001594 112.3040 247.8340 14.78672769405894
KAZSTSAT                
1 43783U 18099AB  26157.62322528  .00001328  00000+0  11169-3 0  9997
2 43783  97.4264 190.0325 0007678  97.1759 263.0338 14.99837336409725
